0 CBERS 1 DEB
1 34208U 99057RK  13288.12657870  .00007781  00000-0  20389-2 0  2131
2 34208 098.2557 255.1286 0005774 312.5518 048.1403 14.49509806302003
0 CBERS 1 DEB
1 34208U 99057RK  13294.13181507  .00009858  00000-0  25713-2 0  2142
2 34208 098.2502 260.9881 0007291 286.9403 073.9511 14.49655404302878
0 CBERS 1 DEB
1 34208U 99057RK  13296.13327405  .00010998  00000-0  28643-2 0  2156
2 34208 098.2652 262.9795 0005578 271.5403 088.5831 14.49705764303161
